{
  "norad_id": 63116,
  "name": "STARLINK-11591 [DTC]",
  "history": [
    {
      "epoch": "2026-03-28T18:56:52.112256Z",
      "apogee_km": 358.0316316592871,
      "perigee_km": 354.68431827692984,
      "latitude_deg": -1.1087648921139589e-05,
      "longitude_deg": 10.911659029998688,
      "height_km": 354.95250836549087,
      "semi_major_axis_km": 6734.494974968108,
      "eccentricity": 0.00024852,
      "inclination_deg": 42.9993,
      "raan_deg": 121.3337,
      "arg_perigee_deg": 45.4227,
      "mean_anomaly_deg": 314.6843,
      "mean_motion_rev_day": 15.70887964
    },
    {
      "epoch": "2026-03-30T02:59:36.346272Z",
      "apogee_km": 357.6046856324365,
      "perigee_km": 355.4953816535008,
      "latitude_deg": 1.463170354567449e-05,
      "longitude_deg": -119.13968824549414,
      "height_km": 357.34943048444933,
      "semi_major_axis_km": 6734.687033642968,
      "eccentricity": 0.0001566,
      "inclination_deg": 42.9995,
      "raan_deg": 113.2827,
      "arg_perigee_deg": 192.8825,
      "mean_anomaly_deg": 167.2003,
      "mean_motion_rev_day": 15.70820767
    },
    {
      "epoch": "2026-03-30T12:08:59.000352Z",
      "apogee_km": 356.7889122284905,
      "perigee_km": 355.8738326660414,
      "latitude_deg": 5.5666902400496286e-05,
      "longitude_deg": 100.84102837040906,
      "height_km": 355.64522986911476,
      "semi_major_axis_km": 6734.468372447265,
      "eccentricity": 6.794e-05,
      "inclination_deg": 42.9995,
      "raan_deg": 110.9838,
      "arg_perigee_deg": 1.9787,
      "mean_anomaly_deg": 358.1084,
      "mean_motion_rev_day": 15.70897272
    },
    {
      "epoch": "2026-03-31T09:30:48.286080Z",
      "apogee_km": 357.5910920894012,
      "perigee_km": 355.21312632993977,
      "latitude_deg": 3.086628773322337e-05,
      "longitude_deg": 134.14087025889862,
      "height_km": 355.960745919876,
      "semi_major_axis_km": 6734.539109209671,
      "eccentricity": 0.00017655,
      "inclination_deg": 42.9998,
      "raan_deg": 105.6164,
      "arg_perigee_deg": 280.3731,
      "mean_anomaly_deg": 79.6938,
      "mean_motion_rev_day": 15.70872522
    },
    {
      "epoch": "2026-04-01T17:33:34.135776Z",
      "apogee_km": 357.2640432722301,
      "perigee_km": 354.96496980789834,
      "latitude_deg": -1.1046554659036522e-05,
      "longitude_deg": 4.086801611516493,
      "height_km": 355.48778162719015,
      "semi_major_axis_km": 6734.251506540064,
      "eccentricity": 0.0001707,
      "inclination_deg": 43.0011,
      "raan_deg": 97.5695,
      "arg_perigee_deg": 290.3368,
      "mean_anomaly_deg": 69.7316,
      "mean_motion_rev_day": 15.70973155
    },
    {
      "epoch": "2026-04-02T16:26:57.275232Z",
      "apogee_km": 356.52991180069057,
      "perigee_km": 355.81163053381715,
      "latitude_deg": 5.974784234190125e-06,
      "longitude_deg": 14.051057091545749,
      "height_km": 355.61627729983553,
      "semi_major_axis_km": 6734.307771167253,
      "eccentricity": 5.333e-05,
      "inclination_deg": 43.0005,
      "raan_deg": 91.8202,
      "arg_perigee_deg": 335.1782,
      "mean_anomaly_deg": 24.906,
      "mean_motion_rev_day": 15.70953467
    },
    {
      "epoch": "2026-04-03T06:10:58.448352Z",
      "apogee_km": 357.0192924904841,
      "perigee_km": 355.6777829713683,
      "latitude_deg": 4.569413266632191e-05,
      "longitude_deg": 164.03159030432997,
      "height_km": 356.3133590673376,
      "semi_major_axis_km": 6734.485537730926,
      "eccentricity": 9.96e-05,
      "inclination_deg": 43.0003,
      "raan_deg": 88.3696,
      "arg_perigee_deg": 253.2987,
      "mean_anomaly_deg": 106.7772,
      "mean_motion_rev_day": 15.70891266
    },
    {
      "epoch": "2026-04-04T08:07:30.285408Z",
      "apogee_km": 357.4830250692694,
      "perigee_km": 354.6989605324843,
      "latitude_deg": -1.063972383460654e-05,
      "longitude_deg": 127.31836810614979,
      "height_km": 356.3398751023622,
      "semi_major_axis_km": 6734.227992800877,
      "eccentricity": 0.00020671,
      "inclination_deg": 43.001,
      "raan_deg": 81.8545,
      "arg_perigee_deg": 250.0057,
      "mean_anomaly_deg": 110.0588,
      "mean_motion_rev_day": 15.70981383
    },
    {
      "epoch": "2026-04-05T20:44:56.891904Z",
      "apogee_km": 357.3463765919578,
      "perigee_km": 354.89106695579903,
      "latitude_deg": 2.124801081109584e-05,
      "longitude_deg": -72.74465705779208,
      "height_km": 355.51551422835024,
      "semi_major_axis_km": 6734.255721773878,
      "eccentricity": 0.0001823,
      "inclination_deg": 42.9996,
      "raan_deg": 72.6564,
      "arg_perigee_deg": 287.831,
      "mean_anomaly_deg": 72.2359,
      "mean_motion_rev_day": 15.7097168
    },
    {
      "epoch": "2026-04-05T23:48:03.813984Z",
      "apogee_km": 357.21866661599415,
      "perigee_km": 355.50042716701955,
      "latitude_deg": 2.267345879455403e-05,
      "longitude_deg": -119.41643578083693,
      "height_km": 356.5128699913998,
      "semi_major_axis_km": 6734.496546891506,
      "eccentricity": 0.00012757,
      "inclination_deg": 42.9992,
      "raan_deg": 71.8888,
      "arg_perigee_deg": 243.6556,
      "mean_anomaly_deg": 116.4181,
      "mean_motion_rev_day": 15.70887414
    },
    {
      "epoch": "2026-04-07T06:19:14.313504Z",
      "apogee_km": 357.6901700785429,
      "perigee_km": 355.0910464934004,
      "latitude_deg": 3.435095735918233e-05,
      "longitude_deg": 133.87293065651798,
      "height_km": 356.1507750362531,
      "semi_major_axis_km": 6734.527608285971,
      "eccentricity": 0.00019297,
      "inclination_deg": 43.001,
      "raan_deg": 64.2253,
      "arg_perigee_deg": 270.5648,
      "mean_anomaly_deg": 89.4999,
      "mean_motion_rev_day": 15.70876546
    },
    {
      "epoch": "2026-04-08T14:22:01.416000Z",
      "apogee_km": 356.72935250809314,
      "perigee_km": 355.90828765450806,
      "latitude_deg": 2.007377194499825e-05,
      "longitude_deg": 3.8131514283059444,
      "height_km": 355.73817529028275,
      "semi_major_axis_km": 6734.4558200813,
      "eccentricity": 6.096e-05,
      "inclination_deg": 43.0016,
      "raan_deg": 56.1779,
      "arg_perigee_deg": 329.1189,
      "mean_anomaly_deg": 30.9643,
      "mean_motion_rev_day": 15.70901664
    },
    {
      "epoch": "2026-04-09T20:53:12.516000Z",
      "apogee_km": 357.1531990070107,
      "perigee_km": 355.54231025370245,
      "latitude_deg": 3.0977099345820834e-06,
      "longitude_deg": -102.9023220383927,
      "height_km": 356.2342539774881,
      "semi_major_axis_km": 6734.484754630356,
      "eccentricity": 0.0001196,
      "inclination_deg": 42.9992,
      "raan_deg": 48.5121,
      "arg_perigee_deg": 261.8382,
      "mean_anomaly_deg": 98.235,
      "mean_motion_rev_day": 15.7089154
    },
    {
      "epoch": "2026-04-10T06:02:34.106496Z",
      "apogee_km": 357.49957425513185,
      "perigee_km": 355.3033065789432,
      "latitude_deg": 2.9208706804458175e-05,
      "longitude_deg": 117.08282097693974,
      "height_km": 356.4668988974685,
      "semi_major_axis_km": 6734.538440417037,
      "eccentricity": 0.00016306,
      "inclination_deg": 42.9998,
      "raan_deg": 46.2132,
      "arg_perigee_deg": 254.5282,
      "mean_anomaly_deg": 105.5406,
      "mean_motion_rev_day": 15.70872756
    },
    {
      "epoch": "2026-04-11T12:33:46.918080Z",
      "apogee_km": 357.03324034965317,
      "perigee_km": 355.70115541931136,
      "latitude_deg": -1.1683301938525838e-05,
      "longitude_deg": 10.359772051573515,
      "height_km": 355.4729130558803,
      "semi_major_axis_km": 6734.504197884482,
      "eccentricity": 9.89e-05,
      "inclination_deg": 42.9998,
      "raan_deg": 38.547,
      "arg_perigee_deg": 2.3846,
      "mean_anomaly_deg": 357.7026,
      "mean_motion_rev_day": 15.70884737
    },
    {
      "epoch": "2026-04-12T23:39:38.507040Z",
      "apogee_km": 357.578037318307,
      "perigee_km": 355.39063230876036,
      "latitude_deg": 1.3041437145710231e-05,
      "longitude_deg": -166.36246665370723,
      "height_km": 356.31882896255246,
      "semi_major_axis_km": 6734.621334813533,
      "eccentricity": 0.0001624,
      "inclination_deg": 43.0004,
      "raan_deg": 29.7311,
      "arg_perigee_deg": 266.7591,
      "mean_anomaly_deg": 93.3091,
      "mean_motion_rev_day": 15.70843753
    },
    {
      "epoch": "2026-04-14T16:51:45.112608Z",
      "apogee_km": 357.9230776259292,
      "perigee_km": 354.6716927047719,
      "latitude_deg": -4.755894344513445e-06,
      "longitude_deg": -76.4277064216204,
      "height_km": 355.57549789360985,
      "semi_major_axis_km": 6734.43438516535,
      "eccentricity": 0.0002414,
      "inclination_deg": 43.0015,
      "raan_deg": 19.3855,
      "arg_perigee_deg": 287.737,
      "mean_anomaly_deg": 72.3234,
      "mean_motion_rev_day": 15.70909164
    },
    {
      "epoch": "2026-04-15T11:10:28.389504Z",
      "apogee_km": 357.12507848147106,
      "perigee_km": 355.32255946466466,
      "latitude_deg": -3.718699701039767e-05,
      "longitude_deg": 3.53959198300945,
      "height_km": 355.78427207247665,
      "semi_major_axis_km": 6734.360818973068,
      "eccentricity": 0.00013383,
      "inclination_deg": 43.0009,
      "raan_deg": 14.7852,
      "arg_perigee_deg": 283.6075,
      "mean_anomaly_deg": 76.4643,
      "mean_motion_rev_day": 15.70934905
    }
  ]
}